[{"OBJECT_NAME":"TACSAT 6","OBJECT_ID":"2013-072M","EPOCH":"2026-03-09T21:48:18.118656","MEAN_MOTION":15.49411177,"ECCENTRICITY":0.00679094,"INCLINATION":120.4689,"RA_OF_ASC_NODE":89.7096,"ARG_OF_PERICENTER":302.5067,"MEAN_ANOMALY":56.9471,"EPHEMERIS_TYPE":0,"CLASSIFICATION_TYPE":"U","NORAD_CAT_ID":39473,"ELEMENT_SET_NO":999,"REV_AT_EPOCH":10391,"BSTAR":0.0009916056,"MEAN_MOTION_DOT":0.00060565,"MEAN_MOTION_DDOT":0},{"OBJECT_NAME":"STARLINK-1876","OBJECT_ID":"2020-088AR","EPOCH":"2026-03-09T22:56:33.901152","MEAN_MOTION":15.63378718,"ECCENTRICITY":9.902e-5,"INCLINATION":53.0523,"RA_OF_ASC_NODE":270.431,"ARG_OF_PERICENTER":89.3659,"MEAN_ANOMALY":270.7468,"EPHEMERIS_TYPE":0,"CLASSIFICATION_TYPE":"U","NORAD_CAT_ID":47161,"ELEMENT_SET_NO":999,"REV_AT_EPOCH":29230,"BSTAR":0.00095322779,"MEAN_MOTION_DOT":0.00089898,"MEAN_MOTION_DDOT":0}]
